[{"OBJECT_NAME":"STARLINK-31528","OBJECT_ID":"2024-036N","EPOCH":"2026-03-09T11:09:28.468512","MEAN_MOTION":15.3015111,"ECCENTRICITY":0.0001718,"INCLINATION":53.1616,"RA_OF_ASC_NODE":79.5417,"ARG_OF_PERICENTER":57.5039,"MEAN_ANOMALY":302.6127,"EPHEMERIS_TYPE":0,"CLASSIFICATION_TYPE":"U","NORAD_CAT_ID":59010,"ELEMENT_SET_NO":999,"REV_AT_EPOCH":11528,"BSTAR":-0.00018661961,"MEAN_MOTION_DOT":-5.874e-5,"MEAN_MOTION_DDOT":0},{"OBJECT_NAME":"TOMORROW-S4","OBJECT_ID":"2024-247K","EPOCH":"2026-03-09T12:47:35.836224","MEAN_MOTION":15.27717249,"ECCENTRICITY":0.00044343,"INCLINATION":44.9818,"RA_OF_ASC_NODE":117.9996,"ARG_OF_PERICENTER":210.4078,"MEAN_ANOMALY":149.6548,"EPHEMERIS_TYPE":0,"CLASSIFICATION_TYPE":"U","NORAD_CAT_ID":62386,"ELEMENT_SET_NO":999,"REV_AT_EPOCH":6770,"BSTAR":0.00046927249,"MEAN_MOTION_DOT":0.00012677,"MEAN_MOTION_DDOT":0}]
